0 DELTA 1 DEB
1 21568U 75052HN  13282.99309626  .00000698  00000-0  88884-3 0  1984
2 21568 099.6111 078.5529 0258089 180.6940 308.0026 13.53703051100881
0 DELTA 1 DEB
1 21568U 75052HN  13287.41514919  .00000704  00000-0  89598-3 0  1991
2 21568 099.6116 082.8517 0257915 169.6654 258.1157 13.53710668101486
0 DELTA 1 DEB
1 21568U 75052HN  13289.94012588  .00000709  00000-0  90221-3 0  2009
2 21568 099.6123 085.3062 0257807 163.3498 323.2307 13.53716191101820
0 DELTA 1 DEB
1 21568U 75052HN  13292.44264038  .00000728  00000-0  92406-3 0  2016
2 21568 099.6128 087.7393 0257628 157.0946 278.9230 13.53720492102165
0 DELTA 1 DEB
1 21568U 75052HN  13295.39528898  .00000811  00000-0  10235-2 0  2023
2 21568 099.6120 090.6103 0257548 149.6993 268.3614 13.53727068102568
